COSMOS 2058             
1 20465U 90010A   26085.33202542  .00004513  00000+0  26507-3 0  9994
2 20465  82.4683  31.0282 0007438 279.3565  80.6824 15.11466302944751
SL-14 R/B               
1 20466U 90010B   26085.88570430  .00000521  00000+0  60266-4 0  9995
2 20466  82.4994 251.2310 0018512 241.1835 118.7522 14.83584250931033
SL-14 R/B               
1 20511U 90018B   26085.71750332  .00000440  00000+0  52147-4 0  9996
2 20511  82.5234 207.1767 0017088  40.1511 320.0962 14.82161327925105
HST                     
1 20580U 90037B   26085.90624310  .00007820  00000+0  25588-3 0  9997
2 20580  28.4722 282.5324 0001594 328.1979  31.8520 15.29741799775952
SL-16 R/B               
1 20625U 90046B   26085.87531129  .00000192  00000+0  12392-3 0  9992
2 20625  70.9954 261.8179 0016322 277.1661  82.7606 14.15014541850827
COSMOS 2084             
1 20663U 90055A   26085.52430630  .00002308  00000+0  17229-3 0  9996
2 20663  62.7892 278.1559 0014427 195.0903 164.9769 15.05739159938855
SL-6 R/B(2)             
1 20666U 90055D   26085.72952973  .00001823  00000+0  14607-3 0  9998
2 20666  62.7831 195.8996 0027588 350.9704   9.0896 15.03674812940758
SL-8 R/B                
1 20775U 90078B   26085.90898721  .00013317  00000+0  39440-3 0  9997
2 20775  82.9018 235.8155 0358755 315.9446  41.3686 14.89584455811860
SL-8 R/B                
1 21088U 91006B   26085.64220931  .00000078  00000+0  62610-4 0  9996
2 21088  82.9449 157.4427 0021990 351.4058 173.4014 13.77496732766406
OKEAN-3                 
1 21397U 91039A   26085.36878950  .00001988  00000+0  13841-3 0  9996
2 21397  82.5165 320.6838 0012332 274.9268  85.0551 15.04901773867541
COSMOS 2151             
1 21422U 91042A   26085.89250258  .00002738  00000+0  21684-3 0  9990
2 21422  82.4944  67.0765 0012649   9.7232 350.4234 15.00176126865773
SL-14 R/B               
1 21423U 91042B   26085.70663196  .00000460  00000+0  55142-4 0  9997
2 21423  82.4954 204.2280 0017033 180.3166 179.8041 14.81846195855592
